{
  "type": "FeatureCollection",
  "features": [
    {
      "type": "Feature",
      "properties": {
        "norad_id": 34299,
        "name": "COSMOS 2251 DEB",
        "group": "cosmos-2251-debris",
        "lat": -50.06211980179668,
        "lon": 178.7842621080953,
        "alt_km": 381.4926615425202,
        "timestamp": "2025-12-10T21:43:22.484994+00:00",
        "meta_object_name": "COSMOS 2251 DEB",
        "meta_object_id": "1993-036MV",
        "meta_epoch": "2025-12-10T10:01:18.436800",
        "meta_mean_motion": 15.68507926,
        "meta_eccentricity": 0.00212966,
        "meta_inclination": 73.978,
        "meta_ra_of_asc_node": 339.8142,
        "meta_arg_of_pericenter": 58.2723,
        "meta_mean_anomaly": 302.0571,
        "meta_ephemeris_type": 0,
        "meta_classification_type": "U",
        "meta_norad_cat_id": 34299,
        "meta_element_set_no": 999,
        "meta_rev_at_epoch": 88974,
        "meta_bstar": 0.0074300809,
        "meta_mean_motion_dot": 0.00932202,
        "meta_mean_motion_ddot": 0,
        "tle_line1": "1 34299U 93036MV  25344.41757450  .00932202  00000+0  74301-2 0  9993",
        "tle_line2": "2 34299  73.9780 339.8142 0021296  58.2723 302.0571 15.68507926889743"
      },
      "geometry": {
        "type": "Point",
        "coordinates": [
          178.7842621080953,
          -50.06211980179668
        ]
      }
    },
    {
      "type": "Feature",
      "properties": {
        "norad_id": 34301,
        "name": "COSMOS 2251 DEB",
        "group": "cosmos-2251-debris",
        "lat": 37.33149759181567,
        "lon": -22.28670384600648,
        "alt_km": 612.3147182043449,
        "timestamp": "2025-12-10T21:43:22.485004+00:00",
        "meta_object_name": "COSMOS 2251 DEB",
        "meta_object_id": "1993-036MX",
        "meta_epoch": "2025-12-09T00:30:20.035008",
        "meta_mean_motion": 14.84254528,
        "meta_eccentricity": 0.00117791,
        "meta_inclination": 74.0056,
        "meta_ra_of_asc_node": 174.0909,
        "meta_arg_of_pericenter": 233.226,
        "meta_mean_anomaly": 284.4717,
        "meta_ephemeris_type": 0,
        "meta_classification_type": "U",
        "meta_norad_cat_id": 34301,
        "meta_element_set_no": 999,
        "meta_rev_at_epoch": 88345,
        "meta_bstar": 0.0032627811,
        "meta_mean_motion_dot": 0.00027446,
        "meta_mean_motion_ddot": 0,
        "tle_line1": "1 34301U 93036MX  25343.02106522  .00027446  00000+0  32628-2 0  9992",
        "tle_line2": "2 34301  74.0056 174.0909 0011779 233.2260 284.4717 14.84254528883452"
      },
      "geometry": {
        "type": "Point",
        "coordinates": [
          -22.28670384600648,
          37.33149759181567
        ]
      }
    },
    {
      "type": "Feature",
      "properties": {
        "norad_id": 34302,
        "name": "COSMOS 2251 DEB",
        "group": "cosmos-2251-debris",
        "lat": 11.748648906565501,
        "lon": -56.44321004486245,
        "alt_km": 817.6399583629018,
        "timestamp": "2025-12-10T21:43:22.485025+00:00",
        "meta_object_name": "COSMOS 2251 DEB",
        "meta_object_id": "1993-036MY",
        "meta_epoch": "2025-12-10T09:24:23.774112",
        "meta_mean_motion": 14.39316879,
        "meta_eccentricity": 0.00786222,
        "meta_inclination": 74.178,
        "meta_ra_of_asc_node": 127.8765,
        "meta_arg_of_pericenter": 343.7916,
        "meta_mean_anomaly": 45.9782,
        "meta_ephemeris_type": 0,
        "meta_classification_type": "U",
        "meta_norad_cat_id": 34302,
        "meta_element_set_no": 999,
        "meta_rev_at_epoch": 87687,
        "meta_bstar": 0.00095025958,
        "meta_mean_motion_dot": 3.035e-05,
        "meta_mean_motion_ddot": 0,
        "tle_line1": "1 34302U 93036MY  25344.39194183  .00003035  00000+0  95026-3 0  9994",
        "tle_line2": "2 34302  74.1780 127.8765 0078622 343.7916  45.9782 14.39316879876877"
      },
      "geometry": {
        "type": "Point",
        "coordinates": [
          -56.44321004486245,
          11.748648906565501
        ]
      }
    },
    {
      "type": "Feature",
      "properties": {
        "norad_id": 34303,
        "name": "COSMOS 2251 DEB",
        "group": "cosmos-2251-debris",
        "lat": -64.78541720024691,
        "lon": 149.04644022413987,
        "alt_km": 813.8509637284724,
        "timestamp": "2025-12-10T21:43:22.485037+00:00",
        "meta_object_name": "COSMOS 2251 DEB",
        "meta_object_id": "1993-036MZ",
        "meta_epoch": "2025-12-10T07:56:01.863168",
        "meta_mean_motion": 14.54396591,
        "meta_eccentricity": 0.0134981,
        "meta_inclination": 74.0056,
        "meta_ra_of_asc_node": 292.6077,
        "meta_arg_of_pericenter": 71.5711,
        "meta_mean_anomaly": 51.6375,
        "meta_ephemeris_type": 0,
        "meta_classification_type": "U",
        "meta_norad_cat_id": 34303,
        "meta_element_set_no": 999,
        "meta_rev_at_epoch": 87927,
        "meta_bstar": 0.0021766,
        "meta_mean_motion_dot": 0.00010437,
        "meta_mean_motion_ddot": 0,
        "tle_line1": "1 34303U 93036MZ  25344.33057712  .00010437  00000+0  21766-2 0  9998",
        "tle_line2": "2 34303  74.0056 292.6077 0134981  71.5711  51.6375 14.54396591879275"
      },
      "geometry": {
        "type": "Point",
        "coordinates": [
          149.04644022413987,
          -64.78541720024691
        ]
      }
    },
    {
      "type": "Feature",
      "properties": {
        "norad_id": 34304,
        "name": "COSMOS 2251 DEB",
        "group": "cosmos-2251-debris",
        "lat": 64.21316947713451,
        "lon": -90.41662822685383,
        "alt_km": 841.3756571626236,
        "timestamp": "2025-12-10T21:43:22.485047+00:00",
        "meta_object_name": "COSMOS 2251 DEB",
        "meta_object_id": "1993-036NA",
        "meta_epoch": "2025-12-10T11:29:22.458624",
        "meta_mean_motion": 14.37824567,
        "meta_eccentricity": 0.01289402,
        "meta_inclination": 74.0135,
        "meta_ra_of_asc_node": 126.7657,
        "meta_arg_of_pericenter": 265.0097,
        "meta_mean_anomaly": 159.9331,
        "meta_ephemeris_type": 0,
        "meta_classification_type": "U",
        "meta_norad_cat_id": 34304,
        "meta_element_set_no": 999,
        "meta_rev_at_epoch": 87264,
        "meta_bstar": 0.0023357871,
        "meta_mean_motion_dot": 7.731e-05,
        "meta_mean_motion_ddot": 0,
        "tle_line1": "1 34304U 93036NA  25344.47873216  .00007731  00000+0  23358-2 0  9991",
        "tle_line2": "2 34304  74.0135 126.7657 0128940 265.0097 159.9331 14.37824567872648"
      },
      "geometry": {
        "type": "Point",
        "coordinates": [
          -90.41662822685383,
          64.21316947713451
        ]
      }
    },
    {
      "type": "Feature",
      "properties": {
        "norad_id": 34307,
        "name": "COSMOS 2251 DEB",
        "group": "cosmos-2251-debris",
        "lat": 31.14672945038933,
        "lon": 126.10915905622852,
        "alt_km": 762.6904219525986,
        "timestamp": "2025-12-10T21:43:22.485058+00:00",
        "meta_object_name": "COSMOS 2251 DEB",
        "meta_object_id": "1993-036ND",
        "meta_epoch": "2025-12-10T09:20:15.213408",
        "meta_mean_motion": 13.54315638,
        "meta_eccentricity": 0.0392135,
        "meta_inclination": 74.0532,
        "meta_ra_of_asc_node": 316.8871,
        "meta_arg_of_pericenter": 148.3468,
        "meta_mean_anomaly": 3.9089,
        "meta_ephemeris_type": 0,
        "meta_classification_type": "U",
        "meta_norad_cat_id": 34307,
        "meta_element_set_no": 999,
        "meta_rev_at_epoch": 82830,
        "meta_bstar": 0.00082870647,
        "meta_mean_motion_dot": 9.03e-06,
        "meta_mean_motion_ddot": 0,
        "tle_line1": "1 34307U 93036ND  25344.38906497  .00000903  00000+0  82871-3 0  9992",
        "tle_line2": "2 34307  74.0532 316.8871 0392135 148.3468   3.9089 13.54315638828300"
      },
      "geometry": {
        "type": "Point",
        "coordinates": [
          126.10915905622852,
          31.14672945038933
        ]
      }
    },
    {
      "type": "Feature",
      "properties": {
        "norad_id": 34313,
        "name": "COSMOS 2251 DEB",
        "group": "cosmos-2251-debris",
        "lat": -65.40108864297692,
        "lon": -89.54652959031964,
        "alt_km": 524.1405394706899,
        "timestamp": "2025-12-10T21:43:22.485068+00:00",
        "meta_object_name": "COSMOS 2251 DEB",
        "meta_object_id": "1993-036NK",
        "meta_epoch": "2025-12-10T14:07:48.509760",
        "meta_mean_motion": 15.18506893,
        "meta_eccentricity": 0.00115437,
        "meta_inclination": 73.9731,
        "meta_ra_of_asc_node": 310.0116,
        "meta_arg_of_pericenter": 84.1406,
        "meta_mean_anomaly": 276.1106,
        "meta_ephemeris_type": 0,
        "meta_classification_type": "U",
        "meta_norad_cat_id": 34313,
        "meta_element_set_no": 999,
        "meta_rev_at_epoch": 89032,
        "meta_bstar": 0.0062908957,
        "meta_mean_motion_dot": 0.00132398,
        "meta_mean_motion_ddot": 0,
        "tle_line1": "1 34313U 93036NK  25344.58875590  .00132398  00000+0  62909-2 0  9993",
        "tle_line2": "2 34313  73.9731 310.0116 0011543  84.1406 276.1106 15.18506893890326"
      },
      "geometry": {
        "type": "Point",
        "coordinates": [
          -89.54652959031964,
          -65.40108864297692
        ]
      }
    }
  ]
}